{
  "type": "FeatureCollection",
  "features": [
    {
      "type": "Feature",
      "properties": {
        "norad_id": 52912,
        "name": "GAOFEN-12 03",
        "group": "resource",
        "lat": -8.97459101839879,
        "lon": -117.10248104837711,
        "alt_km": 633.9394061129415,
        "timestamp": "2025-12-20T11:30:28.028942+00:00",
        "meta_object_name": "GAOFEN-12 03",
        "meta_object_id": "2022-069A",
        "meta_epoch": "2025-12-20T03:26:00.710592",
        "meta_mean_motion": 14.7962767,
        "meta_eccentricity": 0.0002022,
        "meta_inclination": 97.8489,
        "meta_ra_of_asc_node": 241.3206,
        "meta_arg_of_pericenter": 53.9282,
        "meta_mean_anomaly": 306.2117,
        "meta_ephemeris_type": 0,
        "meta_classification_type": "U",
        "meta_norad_cat_id": 52912,
        "meta_element_set_no": 999,
        "meta_rev_at_epoch": 18813,
        "meta_bstar": 0.00018504,
        "meta_mean_motion_dot": 1.337e-05,
        "meta_mean_motion_ddot": 0,
        "tle_line1": "1 52912U 22069A   25354.14306378  .00001337  00000+0  18504-3 0  9993",
        "tle_line2": "2 52912  97.8489 241.3206 0002022  53.9282 306.2117 14.79627670188139"
      },
      "geometry": {
        "type": "Point",
        "coordinates": [
          -117.10248104837711,
          -8.97459101839879
        ]
      }
    },
    {
      "type": "Feature",
      "properties": {
        "norad_id": 54754,
        "name": "SWOT",
        "group": "resource",
        "lat": -74.57787327200228,
        "lon": -136.28189833836197,
        "alt_km": 900.6211546135983,
        "timestamp": "2025-12-20T11:30:28.028952+00:00",
        "meta_object_name": "SWOT",
        "meta_object_id": "2022-173A",
        "meta_epoch": "2025-12-20T03:19:06.261024",
        "meta_mean_motion": 14.00167908,
        "meta_eccentricity": 3.54e-05,
        "meta_inclination": 77.6109,
        "meta_ra_of_asc_node": 277.0027,
        "meta_arg_of_pericenter": 92.6118,
        "meta_mean_anomaly": 267.5074,
        "meta_ephemeris_type": 0,
        "meta_classification_type": "U",
        "meta_norad_cat_id": 54754,
        "meta_element_set_no": 999,
        "meta_rev_at_epoch": 15409,
        "meta_bstar": 1.6701e-05,
        "meta_mean_motion_dot": 2.2e-07,
        "meta_mean_motion_ddot": 0,
        "tle_line1": "1 54754U 22173A   25354.13826691  .00000022  00000+0  16701-4 0  9997",
        "tle_line2": "2 54754  77.6109 277.0027 0000354  92.6118 267.5074 14.00167908154097"
      },
      "geometry": {
        "type": "Point",
        "coordinates": [
          -136.28189833836197,
          -74.57787327200228
        ]
      }
    },
    {
      "type": "Feature",
      "properties": {
        "norad_id": 57654,
        "name": "GAOFEN-12 04",
        "group": "resource",
        "lat": 16.40716794557727,
        "lon": 92.46631147320817,
        "alt_km": 630.8208103278266,
        "timestamp": "2025-12-20T11:30:28.028962+00:00",
        "meta_object_name": "GAOFEN-12 04",
        "meta_object_id": "2023-123A",
        "meta_epoch": "2025-12-20T04:16:49.941984",
        "meta_mean_motion": 14.79719538,
        "meta_eccentricity": 0.0001236,
        "meta_inclination": 97.9127,
        "meta_ra_of_asc_node": 269.8227,
        "meta_arg_of_pericenter": 77.2148,
        "meta_mean_anomaly": 282.9201,
        "meta_ephemeris_type": 0,
        "meta_classification_type": "U",
        "meta_norad_cat_id": 57654,
        "meta_element_set_no": 999,
        "meta_rev_at_epoch": 12615,
        "meta_bstar": 0.00012731,
        "meta_mean_motion_dot": 9.05e-06,
        "meta_mean_motion_ddot": 0,
        "tle_line1": "1 57654U 23123A   25354.17835581  .00000905  00000+0  12731-3 0  9995",
        "tle_line2": "2 57654  97.9127 269.8227 0001236  77.2148 282.9201 14.79719538126154"
      },
      "geometry": {
        "type": "Point",
        "coordinates": [
          92.46631147320817,
          16.40716794557727
        ]
      }
    },
    {
      "type": "Feature",
      "properties": {
        "norad_id": 59065,
        "name": "PARS 1",
        "group": "resource",
        "lat": 71.76110740741782,
        "lon": 169.0207522094779,
        "alt_km": 431.4739333772395,
        "timestamp": "2025-12-20T11:30:28.028972+00:00",
        "meta_object_name": "PARS 1",
        "meta_object_id": "2024-039Q",
        "meta_epoch": "2025-12-20T04:48:51.827040",
        "meta_mean_motion": 15.41133224,
        "meta_eccentricity": 0.0012081,
        "meta_inclination": 97.4639,
        "meta_ra_of_asc_node": 325.2922,
        "meta_arg_of_pericenter": 49.6994,
        "meta_mean_anomaly": 310.5306,
        "meta_ephemeris_type": 0,
        "meta_classification_type": "U",
        "meta_norad_cat_id": 59065,
        "meta_element_set_no": 999,
        "meta_rev_at_epoch": 10103,
        "meta_bstar": 0.0002117,
        "meta_mean_motion_dot": 8.701e-05,
        "meta_mean_motion_ddot": 0,
        "tle_line1": "1 59065U 24039Q   25354.20059985  .00008701  00000+0  21170-3 0  9999",
        "tle_line2": "2 59065  97.4639 325.2922 0012081  49.6994 310.5306 15.41133224101032"
      },
      "geometry": {
        "type": "Point",
        "coordinates": [
          169.0207522094779,
          71.76110740741782
        ]
      }
    },
    {
      "type": "Feature",
      "properties": {
        "norad_id": 59371,
        "name": "RESURS-P 4",
        "group": "resource",
        "lat": -0.5484276296528515,
        "lon": -59.27927847558703,
        "alt_km": 472.2542430251251,
        "timestamp": "2025-12-20T11:30:28.028981+00:00",
        "meta_object_name": "RESURS-P 4",
        "meta_object_id": "2024-061A",
        "meta_epoch": "2025-12-20T03:40:22.571328",
        "meta_mean_motion": 15.32139999,
        "meta_eccentricity": 0.0001027,
        "meta_inclination": 97.2555,
        "meta_ra_of_asc_node": 300.331,
        "meta_arg_of_pericenter": 60.8276,
        "meta_mean_anomaly": 299.3069,
        "meta_ephemeris_type": 0,
        "meta_classification_type": "U",
        "meta_norad_cat_id": 59371,
        "meta_element_set_no": 999,
        "meta_rev_at_epoch": 9634,
        "meta_bstar": 9.6676e-05,
        "meta_mean_motion_dot": 2.924e-05,
        "meta_mean_motion_ddot": 0,
        "tle_line1": "1 59371U 24061A   25354.15303902  .00002924  00000+0  96676-4 0  9994",
        "tle_line2": "2 59371  97.2555 300.3310 0001027  60.8276 299.3069 15.32139999 96340"
      },
      "geometry": {
        "type": "Point",
        "coordinates": [
          -59.27927847558703,
          -0.5484276296528515
        ]
      }
    },
    {
      "type": "Feature",
      "properties": {
        "norad_id": 59625,
        "name": "LEGION 1",
        "group": "resource",
        "lat": 28.812625610434218,
        "lon": -106.78052739383484,
        "alt_km": 516.6907256033946,
        "timestamp": "2025-12-20T11:30:28.028991+00:00",
        "meta_object_name": "LEGION 1",
        "meta_object_id": "2024-081A",
        "meta_epoch": "2025-12-20T04:30:37.605600",
        "meta_mean_motion": 15.16547121,
        "meta_eccentricity": 0.0003634,
        "meta_inclination": 97.5209,
        "meta_ra_of_asc_node": 68.7631,
        "meta_arg_of_pericenter": 283.7552,
        "meta_mean_anomaly": 76.3276,
        "meta_ephemeris_type": 0,
        "meta_classification_type": "U",
        "meta_norad_cat_id": 59625,
        "meta_element_set_no": 999,
        "meta_rev_at_epoch": 9040,
        "meta_bstar": 0.00015829,
        "meta_mean_motion_dot": 3.02e-05,
        "meta_mean_motion_ddot": 0,
        "tle_line1": "1 59625U 24081A   25354.18793525  .00003020  00000+0  15829-3 0  9993",
        "tle_line2": "2 59625  97.5209  68.7631 0003634 283.7552  76.3276 15.16547121 90407"
      },
      "geometry": {
        "type": "Point",
        "coordinates": [
          -106.78052739383484,
          28.812625610434218
        ]
      }
    },
    {
      "type": "Feature",
      "properties": {
        "norad_id": 59626,
        "name": "LEGION 2",
        "group": "resource",
        "lat": -28.826565981221435,
        "lon": 73.30995784756095,
        "alt_km": 520.9081286995151,
        "timestamp": "2025-12-20T11:30:28.029001+00:00",
        "meta_object_name": "LEGION 2",
        "meta_object_id": "2024-081B",
        "meta_epoch": "2025-12-20T03:43:05.373120",
        "meta_mean_motion": 15.16560521,
        "meta_eccentricity": 0.0005632,
        "meta_inclination": 97.5213,
        "meta_ra_of_asc_node": 68.8182,
        "meta_arg_of_pericenter": 261.3261,
        "meta_mean_anomaly": 98.7334,
        "meta_ephemeris_type": 0,
        "meta_classification_type": "U",
        "meta_norad_cat_id": 59626,
        "meta_element_set_no": 999,
        "meta_rev_at_epoch": 9040,
        "meta_bstar": 0.00019481,
        "meta_mean_motion_dot": 3.735e-05,
        "meta_mean_motion_ddot": 0,
        "tle_line1": "1 59626U 24081B   25354.15492330  .00003735  00000+0  19481-3 0  9992",
        "tle_line2": "2 59626  97.5213  68.8182 0005632 261.3261  98.7334 15.16560521 90406"
      },
      "geometry": {
        "type": "Point",
        "coordinates": [
          73.30995784756095,
          -28.826565981221435
        ]
      }
    }
  ]
}